,id,ax,ay,geocode,address_all,nr_house,road,city,country,postcode
0,187,18.6663434309,50.2824062643,"50.2824062643,18.6663434309","Franciszka Żwirki i Stanisława Wigury, Trynek, Gliwice, Górnośląsko-Zagłębiowska Metropolia, województwo śląskie, 44-122, Polska",,Franciszka Żwirki i Stanisława Wigury,Gliwice,Polska,44-122
1,655,18.6748768585,50.2838696501,"50.2838696501,18.6748768585","Spółdzielnia Mieszkaniowa Gwarków, 22, Bojkowska, Trynek, Gliwice, Górnośląsko-Zagłębiowska Metropolia, województwo śląskie, 44-122, Polska",22,Bojkowska,Gliwice,Polska,44-122
2,656,18.6750744487,50.2837025322,"50.2837025322,18.6750744487","Spółdzielnia Mieszkaniowa Gwarków, 22, Bojkowska, Trynek, Gliwice, Górnośląsko-Zagłębiowska Metropolia, województwo śląskie, 44-122, Polska",22,Bojkowska,Gliwice,Polska,44-122
3,679,18.6737889373,50.2837383117,"50.2837383117,18.6737889373","Zespół Szkół Budowlano-Ceramicznych, 16, Bojkowska, Trynek, Gliwice, Górnośląsko-Zagłębiowska Metropolia, województwo śląskie, 44-100, Polska",16,Bojkowska,Gliwice,Polska,44-100
4,680,18.6733682215,50.2837154854,"50.2837154854,18.6733682215","Zespół Szkół Budowlano-Ceramicznych, 16, Bojkowska, Trynek, Gliwice, Górnośląsko-Zagłębiowska Metropolia, województwo śląskie, 44-100, Polska",16,Bojkowska,Gliwice,Polska,44-100
5,681,18.6739795625,50.2839421973,"50.2839421973,18.6739795625","Zespół Szkół Budowlano-Ceramicznych, 16, Bojkowska, Trynek, Gliwice, Górnośląsko-Zagłębiowska Metropolia, województwo śląskie, 44-100, Polska",16,Bojkowska,Gliwice,Polska,44-100
6,683,18.6744762828,50.2838919347,"50.2838919347,18.6744762828","Zespół Szkół Budowlano-Ceramicznych, 16, Bojkowska, Trynek, Gliwice, Górnośląsko-Zagłębiowska Metropolia, województwo śląskie, 44-100, Polska",16,Bojkowska,Gliwice,Polska,44-100
7,684,18.6751404406,50.2838741434,"50.2838741434,18.6751404406","Spółdzielnia Mieszkaniowa Gwarków, 22, Bojkowska, Trynek, Gliwice, Górnośląsko-Zagłębiowska Metropolia, województwo śląskie, 44-122, Polska",22,Bojkowska,Gliwice,Polska,44-122
8,687,18.6732040868,50.2835291573,"50.2835291573,18.6732040868","18a, Bojkowska, Trynek, Gliwice, Górnośląsko-Zagłębiowska Metropolia, województwo śląskie, 44-100, Polska",18a,Bojkowska,Gliwice,Polska,44-100
9,688,18.6732912813,50.2836326761,"50.2836326761,18.6732912813","Zespół Szkół Budowlano-Ceramicznych, 16, Bojkowska, Trynek, Gliwice, Górnośląsko-Zagłębiowska Metropolia, województwo śląskie, 44-100, Polska",16,Bojkowska,Gliwice,Polska,44-100
10,689,18.6736583836,50.2837839326,"50.2837839326,18.6736583836","Zespół Szkół Budowlano-Ceramicznych, 16, Bojkowska, Trynek, Gliwice, Górnośląsko-Zagłębiowska Metropolia, województwo śląskie, 44-100, Polska",16,Bojkowska,Gliwice,Polska,44-100
11,7894,18.6757698005,50.2822709293,"50.2822709293,18.6757698005","85, Lotników, Trynek, Gliwice, Górnośląsko-Zagłębiowska Metropolia, województwo śląskie, 44-100, Polska",85,Lotników,Gliwice,Polska,44-100
12,7895,18.6737418738,50.2805613018,"50.2805613018,18.6737418738","11, Nowa, Trynek, Gliwice, Górnośląsko-Zagłębiowska Metropolia, województwo śląskie, 44-122, Polska",11,Nowa,Gliwice,Polska,44-122
13,7896,18.674710703,50.2802158451,"50.2802158451,18.674710703","65, Lotników, Trynek, Gliwice, Górnośląsko-Zagłębiowska Metropolia, województwo śląskie, 44-100, Polska",65,Lotników,Gliwice,Polska,44-100
14,7897,18.6739900962,50.2799983119,"50.2799983119,18.6739900962","61C, Lotników, Trynek, Gliwice, Górnośląsko-Zagłębiowska Metropolia, województwo śląskie, 44-100, Polska",61C,Lotników,Gliwice,Polska,44-100
15,7898,18.6736577537,50.2803227664,"50.2803227664,18.6736577537","7, Nowa, Trynek, Gliwice, Górnośląsko-Zagłębiowska Metropolia, województwo śląskie, 44-122, Polska",7,Nowa,Gliwice,Polska,44-122
16,7899,18.6736163058,50.2802005578,"50.2802005578,18.6736163058","5, Nowa, Trynek, Gliwice, Górnośląsko-Zagłębiowska Metropolia, województwo śląskie, 44-122, Polska",5,Nowa,Gliwice,Polska,44-122
17,7900,18.6735655125,50.2800567181,"50.2800567181,18.6735655125","3, Nowa, Trynek, Gliwice, Górnośląsko-Zagłębiowska Metropolia, województwo śląskie, 44-122, Polska",3,Nowa,Gliwice,Polska,44-122
18,7902,18.6736999257,50.2804399116,"50.2804399116,18.6736999257","9, Nowa, Trynek, Gliwice, Górnośląsko-Zagłębiowska Metropolia, województwo śląskie, 44-122, Polska",9,Nowa,Gliwice,Polska,44-122
19,7903,18.6750577814,50.2804111787,"50.2804111787,18.6750577814","64, Lotników, Trynek, Gliwice, Górnośląsko-Zagłębiowska Metropolia, województwo śląskie, 44-100, Polska",64,Lotników,Gliwice,Polska,44-100
20,7915,18.6756680055,50.2820382092,"50.2820382092,18.6756680055","Netto, 78, Lotników, Trynek, Gliwice, Górnośląsko-Zagłębiowska Metropolia, województwo śląskie, 44-100, Polska",78,Lotników,Gliwice,Polska,44-100
21,7916,18.6749123776,50.2821643346,"50.2821643346,18.6749123776","97, Franciszka Żwirki i Stanisława Wigury, Trynek, Gliwice, Górnośląsko-Zagłębiowska Metropolia, województwo śląskie, 44-122, Polska",97,Franciszka Żwirki i Stanisława Wigury,Gliwice,Polska,44-122
22,7917,18.6748057469,50.2819763262,"50.2819763262,18.6748057469","97, Franciszka Żwirki i Stanisława Wigury, Trynek, Gliwice, Górnośląsko-Zagłębiowska Metropolia, województwo śląskie, 44-122, Polska",97,Franciszka Żwirki i Stanisława Wigury,Gliwice,Polska,44-122
23,7918,18.6759352205,50.282646683,"50.282646683,18.6759352205","91, Lotników, Trynek, Gliwice, Górnośląsko-Zagłębiowska Metropolia, województwo śląskie, 44-100, Polska",91,Lotników,Gliwice,Polska,44-100
24,7919,18.6762103264,50.2827816535,"50.2827816535,18.6762103264","Trynek Lotników, Bojkowska, Trynek, Gliwice, Górnośląsko-Zagłębiowska Metropolia, województwo śląskie, 44-100, Polska",,Bojkowska,Gliwice,Polska,44-100
25,7920,18.6760008753,50.28279438,"50.28279438,18.6760008753","91, Lotników, Trynek, Gliwice, Górnośląsko-Zagłębiowska Metropolia, województwo śląskie, 44-100, Polska",91,Lotników,Gliwice,Polska,44-100
26,7921,18.6751996685,50.2821196002,"50.2821196002,18.6751996685","85, Lotników, Trynek, Gliwice, Górnośląsko-Zagłębiowska Metropolia, województwo śląskie, 44-100, Polska",85,Lotników,Gliwice,Polska,44-100
27,7922,18.6752930039,50.2810901481,"50.2810901481,18.6752930039","77, Lotników, Trynek, Gliwice, Górnośląsko-Zagłębiowska Metropolia, województwo śląskie, 44-100, Polska",77,Lotników,Gliwice,Polska,44-100
28,7923,18.6747263804,50.2811759742,"50.2811759742,18.6747263804","Trynek Żwirki i Wigury, Franciszka Żwirki i Stanisława Wigury, Trynek, Gliwice, Górnośląsko-Zagłębiowska Metropolia, województwo śląskie, 44-122, Polska",,Franciszka Żwirki i Stanisława Wigury,Gliwice,Polska,44-122
29,7924,18.6740801415,50.2812776336,"50.2812776336,18.6740801415","92, Franciszka Żwirki i Stanisława Wigury, Trynek, Gliwice, Górnośląsko-Zagłębiowska Metropolia, województwo śląskie, 44-122, Polska",92,Franciszka Żwirki i Stanisława Wigury,Gliwice,Polska,44-122
30,7925,18.6734053644,50.2813755887,"50.2813755887,18.6734053644","Trynek Żwirki i Wigury, Franciszka Żwirki i Stanisława Wigury, Trynek, Gliwice, Górnośląsko-Zagłębiowska Metropolia, województwo śląskie, 44-122, Polska",,Franciszka Żwirki i Stanisława Wigury,Gliwice,Polska,44-122
31,7926,18.6755402573,50.2817561902,"50.2817561902,18.6755402573","Netto, 78, Lotników, Trynek, Gliwice, Górnośląsko-Zagłębiowska Metropolia, województwo śląskie, 44-100, Polska",78,Lotników,Gliwice,Polska,44-100
32,7927,18.6727726966,50.2814549549,"50.2814549549,18.6727726966","85, Franciszka Żwirki i Stanisława Wigury, Trynek, Gliwice, Górnośląsko-Zagłębiowska Metropolia, województwo śląskie, 44-122, Polska",85,Franciszka Żwirki i Stanisława Wigury,Gliwice,Polska,44-122
33,7928,18.6714275365,50.2816549562,"50.2816549562,18.6714275365","Pasaż handlowy Jasna, Franciszka Żwirki i Stanisława Wigury, Trynek, Gliwice, Górnośląsko-Zagłębiowska Metropolia, województwo śląskie, 44-122, Polska",,Franciszka Żwirki i Stanisława Wigury,Gliwice,Polska,44-122
34,7929,18.6725808781,50.2809761347,"50.2809761347,18.6725808781","Zespół Szkolno-Przedszkolny Nr 3 Szkoła Podstawowa Nr 5, 36, Adama Asnyka, Trynek, Gliwice, Górnośląsko-Zagłębiowska Metropolia, województwo śląskie, 44-122, Polska",36,Adama Asnyka,Gliwice,Polska,44-122
35,7930,18.6722335717,50.2810331676,"50.2810331676,18.6722335717","Zespół Szkolno-Przedszkolny Nr 3 Szkoła Podstawowa Nr 5, 36, Adama Asnyka, Trynek, Gliwice, Górnośląsko-Zagłębiowska Metropolia, województwo śląskie, 44-122, Polska",36,Adama Asnyka,Gliwice,Polska,44-122
36,7931,18.6726330765,50.2809663923,"50.2809663923,18.6726330765","Zespół Szkolno-Przedszkolny Nr 3 Szkoła Podstawowa Nr 5, 36, Adama Asnyka, Trynek, Gliwice, Górnośląsko-Zagłębiowska Metropolia, województwo śląskie, 44-122, Polska",36,Adama Asnyka,Gliwice,Polska,44-122
37,7932,18.6724567023,50.2806772789,"50.2806772789,18.6724567023","Zespół Szkolno-Przedszkolny Nr 3 Szkoła Podstawowa Nr 5, 36, Adama Asnyka, Trynek, Gliwice, Górnośląsko-Zagłębiowska Metropolia, województwo śląskie, 44-122, Polska",36,Adama Asnyka,Gliwice,Polska,44-122
38,7933,18.6749795374,50.2801665431,"50.2801665431,18.6749795374","65, Lotników, Trynek, Gliwice, Górnośląsko-Zagłębiowska Metropolia, województwo śląskie, 44-100, Polska",65,Lotników,Gliwice,Polska,44-100
39,7934,18.6750339281,50.2803317484,"50.2803317484,18.6750339281","64, Lotników, Trynek, Gliwice, Górnośląsko-Zagłębiowska Metropolia, województwo śląskie, 44-100, Polska",64,Lotników,Gliwice,Polska,44-100
40,7935,18.67362446,50.2800483524,"50.2800483524,18.67362446","61D, Lotników, Trynek, Gliwice, Górnośląsko-Zagłębiowska Metropolia, województwo śląskie, 44-100, Polska",61D,Lotników,Gliwice,Polska,44-100
41,7936,18.6741828836,50.2799688728,"50.2799688728,18.6741828836","61B, Lotników, Trynek, Gliwice, Górnośląsko-Zagłębiowska Metropolia, województwo śląskie, 44-100, Polska",61B,Lotników,Gliwice,Polska,44-100
42,7937,18.6745947856,50.2799660335,"50.2799660335,18.6745947856","63A, Lotników, Trynek, Gliwice, Górnośląsko-Zagłębiowska Metropolia, województwo śląskie, 44-100, Polska",63A,Lotników,Gliwice,Polska,44-100
43,7938,18.6745649033,50.2799066877,"50.2799066877,18.6745649033","61A, Lotników, Trynek, Gliwice, Górnośląsko-Zagłębiowska Metropolia, województwo śląskie, 44-100, Polska",61A,Lotników,Gliwice,Polska,44-100
44,7939,18.6744120257,50.2799305913,"50.2799305913,18.6744120257","61A, Lotników, Trynek, Gliwice, Górnośląsko-Zagłębiowska Metropolia, województwo śląskie, 44-100, Polska",61A,Lotników,Gliwice,Polska,44-100
45,7940,18.6739074562,50.2800083213,"50.2800083213,18.6739074562","61C, Lotników, Trynek, Gliwice, Górnośląsko-Zagłębiowska Metropolia, województwo śląskie, 44-100, Polska",61C,Lotników,Gliwice,Polska,44-100
46,7941,18.6747982203,50.2796377665,"50.2796377665,18.6747982203","59, Lotników, Trynek, Gliwice, Górnośląsko-Zagłębiowska Metropolia, województwo śląskie, 44-100, Polska",59,Lotników,Gliwice,Polska,44-100
47,7942,18.6746278694,50.2791301442,"50.2791301442,18.6746278694","55, Lotników, Trynek, Gliwice, Górnośląsko-Zagłębiowska Metropolia, województwo śląskie, 44-100, Polska",55,Lotników,Gliwice,Polska,44-100
48,7943,18.6748248046,50.2797218562,"50.2797218562,18.6748248046","58, Lotników, Trynek, Gliwice, Górnośląsko-Zagłębiowska Metropolia, województwo śląskie, 44-100, Polska",58,Lotników,Gliwice,Polska,44-100
49,7944,18.6739978908,50.2795666171,"50.2795666171,18.6739978908","17, Nowa, Trynek, Gliwice, Górnośląsko-Zagłębiowska Metropolia, województwo śląskie, 44-122, Polska",17,Nowa,Gliwice,Polska,44-122
50,7945,18.6747408856,50.2794626882,"50.2794626882,18.6747408856","59, Lotników, Trynek, Gliwice, Górnośląsko-Zagłębiowska Metropolia, województwo śląskie, 44-100, Polska",59,Lotników,Gliwice,Polska,44-100
51,7946,18.6757106888,50.2793246199,"50.2793246199,18.6757106888","56, Lotników, Trynek, Gliwice, Górnośląsko-Zagłębiowska Metropolia, województwo śląskie, 44-100, Polska",56,Lotników,Gliwice,Polska,44-100
52,7947,18.673433828,50.2796438809,"50.2796438809,18.673433828","8, Nowa, Trynek, Gliwice, Górnośląsko-Zagłębiowska Metropolia, województwo śląskie, 44-122, Polska",8,Nowa,Gliwice,Polska,44-122
53,7948,18.6714642268,50.2799144805,"50.2799144805,18.6714642268","Zespół Szkolno-Przedszkolny Nr 3 Szkoła Podstawowa Nr 5, 36, Adama Asnyka, Trynek, Gliwice, Górnośląsko-Zagłębiowska Metropolia, województwo śląskie, 44-122, Polska",36,Adama Asnyka,Gliwice,Polska,44-122
54,7949,18.6713656071,50.2796163749,"50.2796163749,18.6713656071","32, Adama Asnyka, Trynek, Gliwice, Górnośląsko-Zagłębiowska Metropolia, województwo śląskie, 44-100, Polska",32,Adama Asnyka,Gliwice,Polska,44-100
55,7950,18.671190451,50.2792034488,"50.2792034488,18.671190451","16, Modelarzy, Trynek, Gliwice, Górnośląsko-Zagłębiowska Metropolia, województwo śląskie, 44-122, Polska",16,Modelarzy,Gliwice,Polska,44-122
56,7951,18.6702232057,50.2792346537,"50.2792346537,18.6702232057","12, Modelarzy, Trynek, Gliwice, Górnośląsko-Zagłębiowska Metropolia, województwo śląskie, 44-122, Polska",12,Modelarzy,Gliwice,Polska,44-122
57,7952,18.6710259435,50.2792084445,"50.2792084445,18.6710259435","16, Modelarzy, Trynek, Gliwice, Górnośląsko-Zagłębiowska Metropolia, województwo śląskie, 44-122, Polska",16,Modelarzy,Gliwice,Polska,44-122
58,7953,18.6705527847,50.279224841,"50.279224841,18.6705527847","14, Modelarzy, Trynek, Gliwice, Górnośląsko-Zagłębiowska Metropolia, województwo śląskie, 44-122, Polska",14,Modelarzy,Gliwice,Polska,44-122
59,7954,18.6698462955,50.2792510318,"50.2792510318,18.6698462955","14, Janusza Kusocińskiego, Trynek, Gliwice, Górnośląsko-Zagłębiowska Metropolia, województwo śląskie, 44-122, Polska",14,Janusza Kusocińskiego,Gliwice,Polska,44-122
60,7955,18.669828715,50.2790380505,"50.2790380505,18.669828715","24, Jakuba Jasińskiego, Trynek, Gliwice, Górnośląsko-Zagłębiowska Metropolia, województwo śląskie, 44-122, Polska",24,Jakuba Jasińskiego,Gliwice,Polska,44-122
61,7956,18.6698063131,50.2786714438,"50.2786714438,18.6698063131","22, Jakuba Jasińskiego, Trynek, Gliwice, Górnośląsko-Zagłębiowska Metropolia, województwo śląskie, 44-122, Polska",22,Jakuba Jasińskiego,Gliwice,Polska,44-122
62,7957,18.669775986,50.2782499488,"50.2782499488,18.669775986","16, Jakuba Jasińskiego, Trynek, Gliwice, Górnośląsko-Zagłębiowska Metropolia, województwo śląskie, 44-122, Polska",16,Jakuba Jasińskiego,Gliwice,Polska,44-122
63,7958,18.6697464971,50.277838159,"50.277838159,18.6697464971","14, Jakuba Jasińskiego, Trynek, Gliwice, Górnośląsko-Zagłębiowska Metropolia, województwo śląskie, 44-122, Polska",14,Jakuba Jasińskiego,Gliwice,Polska,44-122
64,7959,18.6696983549,50.2772267903,"50.2772267903,18.6696983549","4, Jakuba Jasińskiego, Trynek, Gliwice, Górnośląsko-Zagłębiowska Metropolia, województwo śląskie, 44-122, Polska",4,Jakuba Jasińskiego,Gliwice,Polska,44-122
65,7960,18.671134433,50.2789513998,"50.2789513998,18.671134433","19, Adama Asnyka, Trynek, Gliwice, Górnośląsko-Zagłębiowska Metropolia, województwo śląskie, 44-122, Polska",19,Adama Asnyka,Gliwice,Polska,44-122
66,7961,18.671273123,50.2788964741,"50.2788964741,18.671273123","26, Adama Asnyka, Trynek, Gliwice, Górnośląsko-Zagłębiowska Metropolia, województwo śląskie, 44-122, Polska",26,Adama Asnyka,Gliwice,Polska,44-122
67,7962,18.6712369591,50.2785696866,"50.2785696866,18.6712369591","22, Adama Asnyka, Trynek, Gliwice, Górnośląsko-Zagłębiowska Metropolia, województwo śląskie, 44-122, Polska",22,Adama Asnyka,Gliwice,Polska,44-122
68,7963,18.6711981271,50.2780331584,"50.2780331584,18.6711981271","16, Adama Asnyka, Trynek, Gliwice, Górnośląsko-Zagłębiowska Metropolia, województwo śląskie, 44-122, Polska",16,Adama Asnyka,Gliwice,Polska,44-122
69,7964,18.6711560169,50.2777723079,"50.2777723079,18.6711560169","14, Adama Asnyka, Trynek, Gliwice, Górnośląsko-Zagłębiowska Metropolia, województwo śląskie, 44-122, Polska",14,Adama Asnyka,Gliwice,Polska,44-122
70,7965,18.6712978048,50.2776984837,"50.2776984837,18.6712978048","12, Adama Asnyka, Trynek, Gliwice, Górnośląsko-Zagłębiowska Metropolia, województwo śląskie, 44-122, Polska",12,Adama Asnyka,Gliwice,Polska,44-122
71,7966,18.6716327223,50.2775204186,"50.2775204186,18.6716327223","10, Adama Asnyka, Trynek, Gliwice, Górnośląsko-Zagłębiowska Metropolia, województwo śląskie, 44-122, Polska",10,Adama Asnyka,Gliwice,Polska,44-122
72,7967,18.6722496101,50.2774996801,"50.2774996801,18.6722496101","10, Adama Asnyka, Trynek, Gliwice, Górnośląsko-Zagłębiowska Metropolia, województwo śląskie, 44-122, Polska",10,Adama Asnyka,Gliwice,Polska,44-122
73,7968,18.6707708427,50.2777888267,"50.2777888267,18.6707708427","2, Ludwika Rydygiera, Trynek, Gliwice, Górnośląsko-Zagłębiowska Metropolia, województwo śląskie, 44-122, Polska",2,Ludwika Rydygiera,Gliwice,Polska,44-122
74,7969,18.6734085898,50.2787400893,"50.2787400893,18.6734085898","26, Piastowska, Trynek, Gliwice, Górnośląsko-Zagłębiowska Metropolia, województwo śląskie, 44-122, Polska",26,Piastowska,Gliwice,Polska,44-122
75,7970,18.6730394063,50.2775130015,"50.2775130015,18.6730394063","16, Piastowska, Trynek, Gliwice, Górnośląsko-Zagłębiowska Metropolia, województwo śląskie, 44-122, Polska",16,Piastowska,Gliwice,Polska,44-122
76,7971,18.6738903257,50.2792123728,"50.2792123728,18.6738903257","12, Nowa, Trynek, Gliwice, Górnośląsko-Zagłębiowska Metropolia, województwo śląskie, 44-122, Polska",12,Nowa,Gliwice,Polska,44-122
77,7972,18.6734407967,50.277502495,"50.277502495,18.6734407967","16, Piastowska, Trynek, Gliwice, Górnośląsko-Zagłębiowska Metropolia, województwo śląskie, 44-122, Polska",16,Piastowska,Gliwice,Polska,44-122
78,7973,18.6737685881,50.2788678308,"50.2788678308,18.6737685881","51, Lotników, Trynek, Gliwice, Górnośląsko-Zagłębiowska Metropolia, województwo śląskie, 44-100, Polska",51,Lotników,Gliwice,Polska,44-100
79,7974,18.6739642787,50.2794663072,"50.2794663072,18.6739642787","10, Nowa, Trynek, Gliwice, Górnośląsko-Zagłębiowska Metropolia, województwo śląskie, 44-122, Polska",10,Nowa,Gliwice,Polska,44-122
80,7975,18.6734995822,50.2778902885,"50.2778902885,18.6734995822","39, Lotników, Trynek, Gliwice, Górnośląsko-Zagłębiowska Metropolia, województwo śląskie, 44-100, Polska",39,Lotników,Gliwice,Polska,44-100
81,7976,18.673571122,50.2781478209,"50.2781478209,18.673571122","39, Lotników, Trynek, Gliwice, Górnośląsko-Zagłębiowska Metropolia, województwo śląskie, 44-100, Polska",39,Lotników,Gliwice,Polska,44-100
82,7977,18.6739397389,50.2793930717,"50.2793930717,18.6739397389","10, Nowa, Trynek, Gliwice, Górnośląsko-Zagłębiowska Metropolia, województwo śląskie, 44-122, Polska",10,Nowa,Gliwice,Polska,44-122
83,7978,18.6744846556,50.2786959091,"50.2786959091,18.6744846556","48, Lotników, Trynek, Gliwice, Górnośląsko-Zagłębiowska Metropolia, województwo śląskie, 44-100, Polska",48,Lotników,Gliwice,Polska,44-100
84,7979,18.6741528083,50.276468558,"50.276468558,18.6741528083","21, Lotników, Trynek, Gliwice, Górnośląsko-Zagłębiowska Metropolia, województwo śląskie, 44-100, Polska",21,Lotników,Gliwice,Polska,44-100
85,7980,18.6742589159,50.2778125212,"50.2778125212,18.6742589159","37, Lotników, Trynek, Gliwice, Górnośląsko-Zagłębiowska Metropolia, województwo śląskie, 44-100, Polska",37,Lotników,Gliwice,Polska,44-100
86,7981,18.6743459407,50.2782522074,"50.2782522074,18.6743459407","42, Lotników, Trynek, Gliwice, Górnośląsko-Zagłębiowska Metropolia, województwo śląskie, 44-100, Polska",42,Lotników,Gliwice,Polska,44-100
87,7982,18.6741840012,50.2769189076,"50.2769189076,18.6741840012","Trynek Kilińskiego, Lotników, Trynek, Gliwice, Górnośląsko-Zagłębiowska Metropolia, województwo śląskie, 44-100, Polska",,Lotników,Gliwice,Polska,44-100
88,7983,18.67420727,50.2773644481,"50.2773644481,18.67420727","33, Lotników, Trynek, Gliwice, Górnośląsko-Zagłębiowska Metropolia, województwo śląskie, 44-100, Polska",33,Lotników,Gliwice,Polska,44-100
89,7984,18.6684775497,50.2766312522,"50.2766312522,18.6684775497","Szkoła Podstawowa Nr 16, 1, Jana Kilińskiego, Trynek, Gliwice, Górnośląsko-Zagłębiowska Metropolia, województwo śląskie, 44-122, Polska",1,Jana Kilińskiego,Gliwice,Polska,44-122
90,7985,18.668843295,50.276620517,"50.276620517,18.668843295","Szkoła Podstawowa Nr 16, 1, Jana Kilińskiego, Trynek, Gliwice, Górnośląsko-Zagłębiowska Metropolia, województwo śląskie, 44-122, Polska",1,Jana Kilińskiego,Gliwice,Polska,44-122
91,7986,18.6694738194,50.2766025019,"50.2766025019,18.6694738194","Szkoła Podstawowa Nr 16, 1, Jana Kilińskiego, Trynek, Gliwice, Górnośląsko-Zagłębiowska Metropolia, województwo śląskie, 44-122, Polska",1,Jana Kilińskiego,Gliwice,Polska,44-122
92,7987,18.6697286988,50.2765995951,"50.2765995951,18.6697286988","Szkoła Podstawowa Nr 16, 1, Jana Kilińskiego, Trynek, Gliwice, Górnośląsko-Zagłębiowska Metropolia, województwo śląskie, 44-122, Polska",1,Jana Kilińskiego,Gliwice,Polska,44-122
93,7988,18.6702141442,50.2765807934,"50.2765807934,18.6702141442","5, Jana Kilińskiego, Trynek, Gliwice, Górnośląsko-Zagłębiowska Metropolia, województwo śląskie, 44-122, Polska",5,Jana Kilińskiego,Gliwice,Polska,44-122
94,7989,18.6709018384,50.2765677455,"50.2765677455,18.6709018384","2, Adama Asnyka, Trynek, Gliwice, Górnośląsko-Zagłębiowska Metropolia, województwo śląskie, 44-122, Polska",2,Adama Asnyka,Gliwice,Polska,44-122
95,7990,18.6714716478,50.2765522277,"50.2765522277,18.6714716478","Trynek Asnyka, Jana Kilińskiego, Trynek, Gliwice, Górnośląsko-Zagłębiowska Metropolia, województwo śląskie, 44-122, Polska",,Jana Kilińskiego,Gliwice,Polska,44-122
96,7991,18.6716023435,50.2765478763,"50.2765478763,18.6716023435","Trynek Asnyka, Jana Kilińskiego, Trynek, Gliwice, Górnośląsko-Zagłębiowska Metropolia, województwo śląskie, 44-122, Polska",,Jana Kilińskiego,Gliwice,Polska,44-122
97,7992,18.6721508541,50.2765242966,"50.2765242966,18.6721508541","24, Jana Kilińskiego, Trynek, Gliwice, Górnośląsko-Zagłębiowska Metropolia, województwo śląskie, 44-122, Polska",24,Jana Kilińskiego,Gliwice,Polska,44-122
98,7993,18.6723175588,50.2765165894,"50.2765165894,18.6723175588","ul. Piastowska, Piastowska, Trynek, Gliwice, Górnośląsko-Zagłębiowska Metropolia, województwo śląskie, 44-122, Polska",,Piastowska,Gliwice,Polska,44-122
99,7994,18.673259273,50.276469691,"50.276469691,18.673259273","30, Jana Kilińskiego, Trynek, Gliwice, Górnośląsko-Zagłębiowska Metropolia, województwo śląskie, 44-122, Polska",30,Jana Kilińskiego,Gliwice,Polska,44-122
100,7995,18.6735352686,50.2764619783,"50.2764619783,18.6735352686","30, Jana Kilińskiego, Trynek, Gliwice, Górnośląsko-Zagłębiowska Metropolia, województwo śląskie, 44-122, Polska",30,Jana Kilińskiego,Gliwice,Polska,44-122
101,7996,18.6740095649,50.27643873,"50.27643873,18.6740095649","30, Jana Kilińskiego, Trynek, Gliwice, Górnośląsko-Zagłębiowska Metropolia, województwo śląskie, 44-122, Polska",30,Jana Kilińskiego,Gliwice,Polska,44-122
102,7997,18.6744431274,50.2764518592,"50.2764518592,18.6744431274","22, Lotników, Trynek, Gliwice, Górnośląsko-Zagłębiowska Metropolia, województwo śląskie, 44-100, Polska",22,Lotników,Gliwice,Polska,44-100
103,7998,18.6742994284,50.2765089755,"50.2765089755,18.6742994284","22, Lotników, Trynek, Gliwice, Górnośląsko-Zagłębiowska Metropolia, województwo śląskie, 44-100, Polska",22,Lotników,Gliwice,Polska,44-100
104,7999,18.67470694,50.2764358529,"50.2764358529,18.67470694","22, Lotników, Trynek, Gliwice, Górnośląsko-Zagłębiowska Metropolia, województwo śląskie, 44-100, Polska",22,Lotników,Gliwice,Polska,44-100
105,8039,18.6721422697,50.2763929003,"50.2763929003,18.6721422697","24, Jana Kilińskiego, Trynek, Gliwice, Górnośląsko-Zagłębiowska Metropolia, województwo śląskie, 44-122, Polska",24,Jana Kilińskiego,Gliwice,Polska,44-122
106,8044,18.6759696852,50.2822367708,"50.2822367708,18.6759696852","Netto, 78, Lotników, Trynek, Gliwice, Górnośląsko-Zagłębiowska Metropolia, województwo śląskie, 44-100, Polska",78,Lotników,Gliwice,Polska,44-100
107,8045,18.675879209,50.2822485354,"50.2822485354,18.675879209","Netto, 78, Lotników, Trynek, Gliwice, Górnośląsko-Zagłębiowska Metropolia, województwo śląskie, 44-100, Polska",78,Lotników,Gliwice,Polska,44-100
108,8046,18.6759111495,50.2822449332,"50.2822449332,18.6759111495","Netto, 78, Lotników, Trynek, Gliwice, Górnośląsko-Zagłębiowska Metropolia, województwo śląskie, 44-100, Polska",78,Lotników,Gliwice,Polska,44-100
109,8047,18.6748513551,50.2820561697,"50.2820561697,18.6748513551","97, Franciszka Żwirki i Stanisława Wigury, Trynek, Gliwice, Górnośląsko-Zagłębiowska Metropolia, województwo śląskie, 44-122, Polska",97,Franciszka Żwirki i Stanisława Wigury,Gliwice,Polska,44-122
110,8048,18.6753366257,50.2812180139,"50.2812180139,18.6753366257","77, Lotników, Trynek, Gliwice, Górnośląsko-Zagłębiowska Metropolia, województwo śląskie, 44-100, Polska",77,Lotników,Gliwice,Polska,44-100
111,8049,18.6751590551,50.2806967684,"50.2806967684,18.6751590551","68, Lotników, Trynek, Gliwice, Górnośląsko-Zagłębiowska Metropolia, województwo śląskie, 44-100, Polska",68,Lotników,Gliwice,Polska,44-100
112,8050,18.6712746874,50.2794016846,"50.2794016846,18.6712746874","32, Adama Asnyka, Trynek, Gliwice, Górnośląsko-Zagłębiowska Metropolia, województwo śląskie, 44-100, Polska",32,Adama Asnyka,Gliwice,Polska,44-100
113,8051,18.6723117279,50.279800202,"50.279800202,18.6723117279","4, Nowa, Trynek, Gliwice, Górnośląsko-Zagłębiowska Metropolia, województwo śląskie, 44-122, Polska",4,Nowa,Gliwice,Polska,44-122
114,15883,18.6655121682,50.2825140612,"50.2825140612,18.6655121682","55, Franciszka Żwirki i Stanisława Wigury, Rodzinny Ogród Działkowy Świt, Trynek, Gliwice, Górnośląsko-Zagłębiowska Metropolia, województwo śląskie, 44-122, Polska",55,Franciszka Żwirki i Stanisława Wigury,Gliwice,Polska,44-122
115,15887,18.6661280286,50.2824350107,"50.2824350107,18.6661280286","Franciszka Żwirki i Stanisława Wigury, Trynek, Gliwice, Górnośląsko-Zagłębiowska Metropolia, województwo śląskie, 44-122, Polska",,Franciszka Żwirki i Stanisława Wigury,Gliwice,Polska,44-122
116,17060,18.6688769787,50.2839102628,"50.2839102628,18.6688769787","11, mjr. pil. Jana Czernego, Trynek, Gliwice, Górnośląsko-Zagłębiowska Metropolia, województwo śląskie, 44-122, Polska",11,mjr. pil. Jana Czernego,Gliwice,Polska,44-122
117,17174,18.6700188924,50.2835613161,"50.2835613161,18.6700188924","24, Jasna, Trynek, Gliwice, Górnośląsko-Zagłębiowska Metropolia, województwo śląskie, 44-100, Polska",24,Jasna,Gliwice,Polska,44-100
118,17175,18.6693311683,50.2819676993,"50.2819676993,18.6693311683","60, Franciszka Żwirki i Stanisława Wigury, Trynek, Gliwice, Górnośląsko-Zagłębiowska Metropolia, województwo śląskie, 44-122, Polska",60,Franciszka Żwirki i Stanisława Wigury,Gliwice,Polska,44-122
119,17176,18.670129318,50.2838198849,"50.2838198849,18.670129318","20, Jasna, Trynek, Gliwice, Górnośląsko-Zagłębiowska Metropolia, województwo śląskie, 44-122, Polska",20,Jasna,Gliwice,Polska,44-122
120,17179,18.6698349084,50.2831385492,"50.2831385492,18.6698349084","28, Jasna, Trynek, Gliwice, Górnośląsko-Zagłębiowska Metropolia, województwo śląskie, 44-122, Polska",28,Jasna,Gliwice,Polska,44-122
121,17182,18.6695669109,50.282538967,"50.282538967,18.6695669109","34, Jasna, Trynek, Gliwice, Górnośląsko-Zagłębiowska Metropolia, województwo śląskie, 44-122, Polska",34,Jasna,Gliwice,Polska,44-122
122,17183,18.6697196678,50.2825156999,"50.2825156999,18.6697196678","Jasna Sport i Rekreacja, 31A, Jasna, Trynek, Gliwice, Górnośląsko-Zagłębiowska Metropolia, województwo śląskie, 44-122, Polska",31A,Jasna,Gliwice,Polska,44-122
123,17224,18.6717095996,50.2832625938,"50.2832625938,18.6717095996","31B, Jasna, Trynek, Gliwice, Górnośląsko-Zagłębiowska Metropolia, województwo śląskie, 44-122, Polska",31B,Jasna,Gliwice,Polska,44-122
124,17225,18.6710605211,50.2833743224,"50.2833743224,18.6710605211","Urząd Miejski w Gliwicach – filia przy ul. Jasnej, 31, Jasna, Trynek, Gliwice, Górnośląsko-Zagłębiowska Metropolia, województwo śląskie, 44-122, Polska",31,Jasna,Gliwice,Polska,44-122
125,17226,18.6700803306,50.2835588941,"50.2835588941,18.6700803306","24, Jasna, Trynek, Gliwice, Górnośląsko-Zagłębiowska Metropolia, województwo śląskie, 44-100, Polska",24,Jasna,Gliwice,Polska,44-100
126,17227,18.6714030173,50.2836223794,"50.2836223794,18.6714030173","Urząd Miejski w Gliwicach – filia przy ul. Jasnej, 31, Jasna, Trynek, Gliwice, Górnośląsko-Zagłębiowska Metropolia, województwo śląskie, 44-122, Polska",31,Jasna,Gliwice,Polska,44-122
127,17228,18.6720995311,50.2831921895,"50.2831921895,18.6720995311","31B, Jasna, Trynek, Gliwice, Górnośląsko-Zagłębiowska Metropolia, województwo śląskie, 44-122, Polska",31B,Jasna,Gliwice,Polska,44-122
128,17229,18.6712955028,50.2833408684,"50.2833408684,18.6712955028","Urząd Miejski w Gliwicach – filia przy ul. Jasnej, 31, Jasna, Trynek, Gliwice, Górnośląsko-Zagłębiowska Metropolia, województwo śląskie, 44-122, Polska",31,Jasna,Gliwice,Polska,44-122
129,17230,18.6720221657,50.2829394553,"50.2829394553,18.6720221657","31B, Jasna, Trynek, Gliwice, Górnośląsko-Zagłębiowska Metropolia, województwo śląskie, 44-122, Polska",31B,Jasna,Gliwice,Polska,44-122
130,17231,18.6718190464,50.283242631,"50.283242631,18.6718190464","31B, Jasna, Trynek, Gliwice, Górnośląsko-Zagłębiowska Metropolia, województwo śląskie, 44-122, Polska",31B,Jasna,Gliwice,Polska,44-122
131,17232,18.6710066158,50.2833826354,"50.2833826354,18.6710066158","Urząd Miejski w Gliwicach – filia przy ul. Jasnej, 31, Jasna, Trynek, Gliwice, Górnośląsko-Zagłębiowska Metropolia, województwo śląskie, 44-122, Polska",31,Jasna,Gliwice,Polska,44-122
132,17233,18.6700631808,50.2835176352,"50.2835176352,18.6700631808","24, Jasna, Trynek, Gliwice, Górnośląsko-Zagłębiowska Metropolia, województwo śląskie, 44-100, Polska",24,Jasna,Gliwice,Polska,44-100
133,17234,18.6700948997,50.2834272744,"50.2834272744,18.6700948997","24, Jasna, Trynek, Gliwice, Górnośląsko-Zagłębiowska Metropolia, województwo śląskie, 44-100, Polska",24,Jasna,Gliwice,Polska,44-100
134,17235,18.6701226424,50.2834753053,"50.2834753053,18.6701226424","24, Jasna, Trynek, Gliwice, Górnośląsko-Zagłębiowska Metropolia, województwo śląskie, 44-100, Polska",24,Jasna,Gliwice,Polska,44-100
135,17236,18.670043792,50.2832850646,"50.2832850646,18.670043792","Jasna Sport i Rekreacja, 31A, Jasna, Trynek, Gliwice, Górnośląsko-Zagłębiowska Metropolia, województwo śląskie, 44-122, Polska",31A,Jasna,Gliwice,Polska,44-122
136,17237,18.6701084369,50.2834520111,"50.2834520111,18.6701084369","24, Jasna, Trynek, Gliwice, Górnośląsko-Zagłębiowska Metropolia, województwo śląskie, 44-100, Polska",24,Jasna,Gliwice,Polska,44-100
137,17238,18.670250603,50.2832539329,"50.2832539329,18.670250603","Jasna Sport i Rekreacja, 31A, Jasna, Trynek, Gliwice, Górnośląsko-Zagłębiowska Metropolia, województwo śląskie, 44-122, Polska",31A,Jasna,Gliwice,Polska,44-122
138,17239,18.6692438832,50.2816567598,"50.2816567598,18.6692438832","U niedźwiedzia, Junaków, Trynek, Gliwice, Górnośląsko-Zagłębiowska Metropolia, województwo śląskie, 44-100, Polska",,Junaków,Gliwice,Polska,44-100
139,17240,18.6693196688,50.281928116,"50.281928116,18.6693196688","60, Franciszka Żwirki i Stanisława Wigury, Trynek, Gliwice, Górnośląsko-Zagłębiowska Metropolia, województwo śląskie, 44-122, Polska",60,Franciszka Żwirki i Stanisława Wigury,Gliwice,Polska,44-122
140,17241,18.6696993863,50.2815903016,"50.2815903016,18.6696993863","60, Franciszka Żwirki i Stanisława Wigury, Trynek, Gliwice, Górnośląsko-Zagłębiowska Metropolia, województwo śląskie, 44-122, Polska",60,Franciszka Żwirki i Stanisława Wigury,Gliwice,Polska,44-122
141,17242,18.6712249853,50.2813898179,"50.2813898179,18.6712249853","Xtreme Fitness Gliwice, 66, Franciszka Żwirki i Stanisława Wigury, Trynek, Gliwice, Górnośląsko-Zagłębiowska Metropolia, województwo śląskie, 44-122, Polska",66,Franciszka Żwirki i Stanisława Wigury,Gliwice,Polska,44-122
142,17243,18.6701230869,50.2815073919,"50.2815073919,18.6701230869","60, Franciszka Żwirki i Stanisława Wigury, Trynek, Gliwice, Górnośląsko-Zagłębiowska Metropolia, województwo śląskie, 44-122, Polska",60,Franciszka Żwirki i Stanisława Wigury,Gliwice,Polska,44-122
143,17244,18.6716391161,50.2813251194,"50.2813251194,18.6716391161","Główna, 68, Franciszka Żwirki i Stanisława Wigury, Trynek, Gliwice, Górnośląsko-Zagłębiowska Metropolia, województwo śląskie, 44-122, Polska",68,Franciszka Żwirki i Stanisława Wigury,Gliwice,Polska,44-122
144,17245,18.6708375043,50.2814339519,"50.2814339519,18.6708375043","Rossmann, Janusza Kusocińskiego, Trynek, Gliwice, Górnośląsko-Zagłębiowska Metropolia, województwo śląskie, 44-100, Polska",,Janusza Kusocińskiego,Gliwice,Polska,44-100
145,17246,18.671417095,50.2813615561,"50.2813615561,18.671417095","68, Franciszka Żwirki i Stanisława Wigury, Trynek, Gliwice, Górnośląsko-Zagłębiowska Metropolia, województwo śląskie, 44-122, Polska",68,Franciszka Żwirki i Stanisława Wigury,Gliwice,Polska,44-122
146,17247,18.6710374295,50.2814126585,"50.2814126585,18.6710374295","Poczta Polska, Janusza Kusocińskiego, Trynek, Gliwice, Górnośląsko-Zagłębiowska Metropolia, województwo śląskie, 44-100, Polska",,Janusza Kusocińskiego,Gliwice,Polska,44-100
147,17248,18.669824109,50.2815692637,"50.2815692637,18.669824109","60, Franciszka Żwirki i Stanisława Wigury, Trynek, Gliwice, Górnośląsko-Zagłębiowska Metropolia, województwo śląskie, 44-122, Polska",60,Franciszka Żwirki i Stanisława Wigury,Gliwice,Polska,44-122
148,17249,18.6702819901,50.2815223895,"50.2815223895,18.6702819901","Euronet, Franciszka Żwirki i Stanisława Wigury, Trynek, Gliwice, Górnośląsko-Zagłębiowska Metropolia, województwo śląskie, 44-122, Polska",,Franciszka Żwirki i Stanisława Wigury,Gliwice,Polska,44-122
149,17250,18.6693708814,50.2816378671,"50.2816378671,18.6693708814","U niedźwiedzia, Junaków, Trynek, Gliwice, Górnośląsko-Zagłębiowska Metropolia, województwo śląskie, 44-100, Polska",,Junaków,Gliwice,Polska,44-100
150,17251,18.670542354,50.2814785411,"50.2814785411,18.670542354","64, Franciszka Żwirki i Stanisława Wigury, Trynek, Gliwice, Górnośląsko-Zagłębiowska Metropolia, województwo śląskie, 44-122, Polska",64,Franciszka Żwirki i Stanisława Wigury,Gliwice,Polska,44-122
151,17252,18.6700560417,50.2813491803,"50.2813491803,18.6700560417","60, Franciszka Żwirki i Stanisława Wigury, Trynek, Gliwice, Górnośląsko-Zagłębiowska Metropolia, województwo śląskie, 44-122, Polska",60,Franciszka Żwirki i Stanisława Wigury,Gliwice,Polska,44-122
152,17253,18.6711769851,50.2809697741,"50.2809697741,18.6711769851","Poczta Polska, Janusza Kusocińskiego, Trynek, Gliwice, Górnośląsko-Zagłębiowska Metropolia, województwo śląskie, 44-100, Polska",,Janusza Kusocińskiego,Gliwice,Polska,44-100
153,17254,18.6699852146,50.2811614106,"50.2811614106,18.6699852146","60, Franciszka Żwirki i Stanisława Wigury, Trynek, Gliwice, Górnośląsko-Zagłębiowska Metropolia, województwo śląskie, 44-122, Polska",60,Franciszka Żwirki i Stanisława Wigury,Gliwice,Polska,44-122
154,17255,18.6702066418,50.2811226425,"50.2811226425,18.6702066418","2, Janusza Kusocińskiego, Trynek, Gliwice, Górnośląsko-Zagłębiowska Metropolia, województwo śląskie, 44-122, Polska",2,Janusza Kusocińskiego,Gliwice,Polska,44-122
155,17256,18.6706422829,50.2810510804,"50.2810510804,18.6706422829","4, Janusza Kusocińskiego, Trynek, Gliwice, Górnośląsko-Zagłębiowska Metropolia, województwo śląskie, 44-122, Polska",4,Janusza Kusocińskiego,Gliwice,Polska,44-122
156,17257,18.6701154439,50.2808431041,"50.2808431041,18.6701154439","4, Janusza Kusocińskiego, Trynek, Gliwice, Górnośląsko-Zagłębiowska Metropolia, województwo śląskie, 44-122, Polska",4,Janusza Kusocińskiego,Gliwice,Polska,44-122
157,17258,18.6701706857,50.281000125,"50.281000125,18.6701706857","2, Janusza Kusocińskiego, Trynek, Gliwice, Górnośląsko-Zagłębiowska Metropolia, województwo śląskie, 44-122, Polska",2,Janusza Kusocińskiego,Gliwice,Polska,44-122
158,17259,18.669333107,50.280134909,"50.280134909,18.669333107","8, Junaków, Trynek, Gliwice, Górnośląsko-Zagłębiowska Metropolia, województwo śląskie, 44-122, Polska",8,Junaków,Gliwice,Polska,44-122
159,17260,18.6693889504,50.2803050534,"50.2803050534,18.6693889504","6, Junaków, Trynek, Gliwice, Górnośląsko-Zagłębiowska Metropolia, województwo śląskie, 44-122, Polska",6,Junaków,Gliwice,Polska,44-122
160,17261,18.6700416631,50.2806747717,"50.2806747717,18.6700416631","6, Janusza Kusocińskiego, Trynek, Gliwice, Górnośląsko-Zagłębiowska Metropolia, województwo śląskie, 44-122, Polska",6,Janusza Kusocińskiego,Gliwice,Polska,44-122
161,17262,18.6694501189,50.2804846974,"50.2804846974,18.6694501189","4, Junaków, Trynek, Gliwice, Górnośląsko-Zagłębiowska Metropolia, województwo śląskie, 44-122, Polska",4,Junaków,Gliwice,Polska,44-122
162,17263,18.6695071843,50.2806518678,"50.2806518678,18.6695071843","2, Junaków, Trynek, Gliwice, Górnośląsko-Zagłębiowska Metropolia, województwo śląskie, 44-122, Polska",2,Junaków,Gliwice,Polska,44-122
163,17264,18.6698985982,50.2802085229,"50.2802085229,18.6698985982","8, Janusza Kusocińskiego, Trynek, Gliwice, Górnośląsko-Zagłębiowska Metropolia, województwo śląskie, 44-122, Polska",8,Janusza Kusocińskiego,Gliwice,Polska,44-122
164,17265,18.6696231633,50.2799477577,"50.2799477577,18.6696231633","10, Janusza Kusocińskiego, Trynek, Gliwice, Górnośląsko-Zagłębiowska Metropolia, województwo śląskie, 44-122, Polska",10,Janusza Kusocińskiego,Gliwice,Polska,44-122
165,17266,18.6696473792,50.2800236806,"50.2800236806,18.6696473792","8, Janusza Kusocińskiego, Trynek, Gliwice, Górnośląsko-Zagłębiowska Metropolia, województwo śląskie, 44-122, Polska",8,Janusza Kusocińskiego,Gliwice,Polska,44-122
166,17267,18.6696793326,50.2801110671,"50.2801110671,18.6696793326","8, Janusza Kusocińskiego, Trynek, Gliwice, Górnośląsko-Zagłębiowska Metropolia, województwo śląskie, 44-122, Polska",8,Janusza Kusocińskiego,Gliwice,Polska,44-122
167,17268,18.6697021462,50.2801670384,"50.2801670384,18.6697021462","8, Janusza Kusocińskiego, Trynek, Gliwice, Górnośląsko-Zagłębiowska Metropolia, województwo śląskie, 44-122, Polska",8,Janusza Kusocińskiego,Gliwice,Polska,44-122
168,17269,18.6695879786,50.2798500503,"50.2798500503,18.6695879786","10, Janusza Kusocińskiego, Trynek, Gliwice, Górnośląsko-Zagłębiowska Metropolia, województwo śląskie, 44-122, Polska",10,Janusza Kusocińskiego,Gliwice,Polska,44-122
169,17270,18.6695705614,50.2797786736,"50.2797786736,18.6695705614","12, Janusza Kusocińskiego, Trynek, Gliwice, Górnośląsko-Zagłębiowska Metropolia, województwo śląskie, 44-122, Polska",12,Janusza Kusocińskiego,Gliwice,Polska,44-122
170,17271,18.6683716316,50.2810771913,"50.2810771913,18.6683716316","12, Jana Dzierżona, Trynek, Gliwice, Górnośląsko-Zagłębiowska Metropolia, województwo śląskie, 44-122, Polska",12,Jana Dzierżona,Gliwice,Polska,44-122
171,17272,18.6687140194,50.2820340971,"50.2820340971,18.6687140194","75, Franciszka Żwirki i Stanisława Wigury, Trynek, Gliwice, Górnośląsko-Zagłębiowska Metropolia, województwo śląskie, 44-122, Polska",75,Franciszka Żwirki i Stanisława Wigury,Gliwice,Polska,44-122
172,17273,18.6677646991,50.2793191113,"50.2793191113,18.6677646991","2, Modelarzy, Trynek, Gliwice, Górnośląsko-Zagłębiowska Metropolia, województwo śląskie, 44-122, Polska",2,Modelarzy,Gliwice,Polska,44-122
173,17274,18.6665844598,50.2783251167,"50.2783251167,18.6665844598","3, Stanisława Kunickiego, Trynek, Gliwice, Górnośląsko-Zagłębiowska Metropolia, województwo śląskie, 44-122, Polska",3,Stanisława Kunickiego,Gliwice,Polska,44-122
174,17275,18.6665850292,50.2783859814,"50.2783859814,18.6665850292","Przedszkole ""Chatka Puchatka"", Michała Ossowskiego, Trynek, Gliwice, Górnośląsko-Zagłębiowska Metropolia, województwo śląskie, 44-122, Polska",,Michała Ossowskiego,Gliwice,Polska,44-122
175,17276,18.6665240446,50.2769223547,"50.2769223547,18.6665240446","11, Stanisława Kunickiego, Trynek, Gliwice, Górnośląsko-Zagłębiowska Metropolia, województwo śląskie, 44-122, Polska",11,Stanisława Kunickiego,Gliwice,Polska,44-122
176,17277,18.6665398745,50.2772522273,"50.2772522273,18.6665398745","9, Stanisława Kunickiego, Trynek, Gliwice, Górnośląsko-Zagłębiowska Metropolia, województwo śląskie, 44-122, Polska",9,Stanisława Kunickiego,Gliwice,Polska,44-122
177,17278,18.6665700236,50.2777635426,"50.2777635426,18.6665700236","7, Stanisława Kunickiego, Trynek, Gliwice, Górnośląsko-Zagłębiowska Metropolia, województwo śląskie, 44-122, Polska",7,Stanisława Kunickiego,Gliwice,Polska,44-122
178,17279,18.6665737007,50.2781474298,"50.2781474298,18.6665737007","5, Stanisława Kunickiego, Trynek, Gliwice, Górnośląsko-Zagłębiowska Metropolia, województwo śląskie, 44-122, Polska",5,Stanisława Kunickiego,Gliwice,Polska,44-122
179,17280,18.6680958501,50.2802735625,"50.2802735625,18.6680958501","20, Jana Dzierżona, Trynek, Gliwice, Górnośląsko-Zagłębiowska Metropolia, województwo śląskie, 44-122, Polska",20,Jana Dzierżona,Gliwice,Polska,44-122
180,17281,18.668224944,50.2821082967,"50.2821082967,18.668224944","75, Franciszka Żwirki i Stanisława Wigury, Trynek, Gliwice, Górnośląsko-Zagłębiowska Metropolia, województwo śląskie, 44-122, Polska",75,Franciszka Żwirki i Stanisława Wigury,Gliwice,Polska,44-122
181,17282,18.6675911862,50.2786000328,"50.2786000328,18.6675911862","40, Jana Dzierżona, Trynek, Gliwice, Górnośląsko-Zagłębiowska Metropolia, województwo śląskie, 44-122, Polska",40,Jana Dzierżona,Gliwice,Polska,44-122
182,17283,18.6677825062,50.2793583888,"50.2793583888,18.6677825062","2, Modelarzy, Trynek, Gliwice, Górnośląsko-Zagłębiowska Metropolia, województwo śląskie, 44-122, Polska",2,Modelarzy,Gliwice,Polska,44-122
183,17284,18.6666542251,50.2791312836,"50.2791312836,18.6666542251","1, Stanisława Kunickiego, Trynek, Gliwice, Górnośląsko-Zagłębiowska Metropolia, województwo śląskie, 44-122, Polska",1,Stanisława Kunickiego,Gliwice,Polska,44-122
184,17285,18.6672980247,50.2794281528,"50.2794281528,18.6672980247","Modelarzy, Trynek, Gliwice, Górnośląsko-Zagłębiowska Metropolia, województwo śląskie, 44-122, Polska",,Modelarzy,Gliwice,Polska,44-122
185,17286,18.6666205056,50.2788165284,"50.2788165284,18.6666205056","1, Stanisława Kunickiego, Trynek, Gliwice, Górnośląsko-Zagłębiowska Metropolia, województwo śląskie, 44-122, Polska",1,Stanisława Kunickiego,Gliwice,Polska,44-122
186,17287,18.6667223688,50.2794897165,"50.2794897165,18.6667223688","Modelarzy, Trynek, Gliwice, Górnośląsko-Zagłębiowska Metropolia, województwo śląskie, 44-122, Polska",,Modelarzy,Gliwice,Polska,44-122
187,17288,18.6665704379,50.2780745329,"50.2780745329,18.6665704379","5, Stanisława Kunickiego, Trynek, Gliwice, Górnośląsko-Zagłębiowska Metropolia, województwo śląskie, 44-122, Polska",5,Stanisława Kunickiego,Gliwice,Polska,44-122
188,17289,18.6665444851,50.2774116083,"50.2774116083,18.6665444851","2, Stanisława Kunickiego, Trynek, Gliwice, Górnośląsko-Zagłębiowska Metropolia, województwo śląskie, 44-122, Polska",2,Stanisława Kunickiego,Gliwice,Polska,44-122
189,17290,18.6665539942,50.2775600822,"50.2775600822,18.6665539942","Paralotniarzy, Trynek, Gliwice, Górnośląsko-Zagłębiowska Metropolia, województwo śląskie, 44-122, Polska",,Paralotniarzy,Gliwice,Polska,44-122
190,17291,18.6665725177,50.2778517283,"50.2778517283,18.6665725177","7, Stanisława Kunickiego, Trynek, Gliwice, Górnośląsko-Zagłębiowska Metropolia, województwo śląskie, 44-122, Polska",7,Stanisława Kunickiego,Gliwice,Polska,44-122
191,17292,18.6665941353,50.2784553383,"50.2784553383,18.6665941353","Przedszkole ""Chatka Puchatka"", Michała Ossowskiego, Trynek, Gliwice, Górnośląsko-Zagłębiowska Metropolia, województwo śląskie, 44-122, Polska",,Michała Ossowskiego,Gliwice,Polska,44-122
192,17293,18.6665598823,50.277630087,"50.277630087,18.6665598823","2, Stanisława Kunickiego, Trynek, Gliwice, Górnośląsko-Zagłębiowska Metropolia, województwo śląskie, 44-122, Polska",2,Stanisława Kunickiego,Gliwice,Polska,44-122
193,17294,18.666612211,50.2808245865,"50.2808245865,18.666612211","12, Młodych Patriotów, Trynek, Gliwice, Górnośląsko-Zagłębiowska Metropolia, województwo śląskie, 44-122, Polska",12,Młodych Patriotów,Gliwice,Polska,44-122
194,17295,18.6673694158,50.2805402674,"50.2805402674,18.6673694158","3, Szarych Szeregów, Trynek, Gliwice, Górnośląsko-Zagłębiowska Metropolia, województwo śląskie, 44-122, Polska",3,Szarych Szeregów,Gliwice,Polska,44-122
195,17296,18.6662163724,50.2796869094,"50.2796869094,18.6662163724","16, Szarych Szeregów, Trynek, Gliwice, Górnośląsko-Zagłębiowska Metropolia, województwo śląskie, 44-122, Polska",16,Szarych Szeregów,Gliwice,Polska,44-122
196,17297,18.6675748218,50.2811116235,"50.2811116235,18.6675748218","22, Młodych Patriotów, Trynek, Gliwice, Górnośląsko-Zagłębiowska Metropolia, województwo śląskie, 44-122, Polska",22,Młodych Patriotów,Gliwice,Polska,44-122
197,17298,18.6674706646,50.2808173227,"50.2808173227,18.6674706646","3, Szarych Szeregów, Trynek, Gliwice, Górnośląsko-Zagłębiowska Metropolia, województwo śląskie, 44-122, Polska",3,Szarych Szeregów,Gliwice,Polska,44-122
198,17299,18.666535583,50.2818681409,"50.2818681409,18.666535583","7, Młodych Patriotów, Trynek, Gliwice, Górnośląsko-Zagłębiowska Metropolia, województwo śląskie, 44-122, Polska",7,Młodych Patriotów,Gliwice,Polska,44-122
199,17300,18.6662376539,50.281020576,"50.281020576,18.6662376539","6, Młodych Patriotów, Trynek, Gliwice, Górnośląsko-Zagłębiowska Metropolia, województwo śląskie, 44-122, Polska",6,Młodych Patriotów,Gliwice,Polska,44-122
200,17301,18.6664691104,50.281709924,"50.281709924,18.6664691104","2, Młodych Patriotów, Trynek, Gliwice, Górnośląsko-Zagłębiowska Metropolia, województwo śląskie, 44-122, Polska",2,Młodych Patriotów,Gliwice,Polska,44-122
201,17302,18.666321272,50.2812512507,"50.2812512507,18.666321272","6, Młodych Patriotów, Trynek, Gliwice, Górnośląsko-Zagłębiowska Metropolia, województwo śląskie, 44-122, Polska",6,Młodych Patriotów,Gliwice,Polska,44-122
202,17303,18.6662961515,50.281180547,"50.281180547,18.6662961515","6, Młodych Patriotów, Trynek, Gliwice, Górnośląsko-Zagłębiowska Metropolia, województwo śląskie, 44-122, Polska",6,Młodych Patriotów,Gliwice,Polska,44-122
203,17304,18.6680212025,50.2816467102,"50.2816467102,18.6680212025","30, Młodych Patriotów, Trynek, Gliwice, Górnośląsko-Zagłębiowska Metropolia, województwo śląskie, 44-122, Polska",30,Młodych Patriotów,Gliwice,Polska,44-122
204,17305,18.6662786743,50.2798682568,"50.2798682568,18.6662786743","12, Szarych Szeregów, Trynek, Gliwice, Górnośląsko-Zagłębiowska Metropolia, województwo śląskie, 44-122, Polska",12,Szarych Szeregów,Gliwice,Polska,44-122
205,17306,18.6671758622,50.2807562591,"50.2807562591,18.6671758622","16, Młodych Patriotów, Trynek, Gliwice, Górnośląsko-Zagłębiowska Metropolia, województwo śląskie, 44-122, Polska",16,Młodych Patriotów,Gliwice,Polska,44-122
206,17307,18.6667502185,50.2795951091,"50.2795951091,18.6667502185","Modelarzy, Trynek, Gliwice, Górnośląsko-Zagłębiowska Metropolia, województwo śląskie, 44-122, Polska",,Modelarzy,Gliwice,Polska,44-122
207,17308,18.6677516891,50.2816184991,"50.2816184991,18.6677516891","30, Młodych Patriotów, Trynek, Gliwice, Górnośląsko-Zagłębiowska Metropolia, województwo śląskie, 44-122, Polska",30,Młodych Patriotów,Gliwice,Polska,44-122
208,17309,18.6667736182,50.2821037738,"50.2821037738,18.6667736182","Młodych Patriotów, Trynek, Gliwice, Górnośląsko-Zagłębiowska Metropolia, województwo śląskie, 44-122, Polska",,Młodych Patriotów,Gliwice,Polska,44-122
209,17310,18.6670271016,50.2820691434,"50.2820691434,18.6670271016","5, Młodych Patriotów, Trynek, Gliwice, Górnośląsko-Zagłębiowska Metropolia, województwo śląskie, 44-122, Polska",5,Młodych Patriotów,Gliwice,Polska,44-122
210,17311,18.6677210226,50.281873655,"50.281873655,18.6677210226","3, Młodych Patriotów, Trynek, Gliwice, Górnośląsko-Zagłębiowska Metropolia, województwo śląskie, 44-122, Polska",3,Młodych Patriotów,Gliwice,Polska,44-122
211,17312,18.6665848421,50.2819692749,"50.2819692749,18.6665848421","7, Młodych Patriotów, Trynek, Gliwice, Górnośląsko-Zagłębiowska Metropolia, województwo śląskie, 44-122, Polska",7,Młodych Patriotów,Gliwice,Polska,44-122
212,17313,18.6667560472,50.2820512783,"50.2820512783,18.6667560472","7, Młodych Patriotów, Trynek, Gliwice, Górnośląsko-Zagłębiowska Metropolia, województwo śląskie, 44-122, Polska",7,Młodych Patriotów,Gliwice,Polska,44-122
213,17314,18.6678297339,50.2818313131,"50.2818313131,18.6678297339","30, Młodych Patriotów, Trynek, Gliwice, Górnośląsko-Zagłębiowska Metropolia, województwo śląskie, 44-122, Polska",30,Młodych Patriotów,Gliwice,Polska,44-122
214,17315,18.6669892323,50.2819698323,"50.2819698323,18.6669892323","5, Młodych Patriotów, Trynek, Gliwice, Górnośląsko-Zagłębiowska Metropolia, województwo śląskie, 44-122, Polska",5,Młodych Patriotów,Gliwice,Polska,44-122
215,17316,18.6666982833,50.2820645564,"50.2820645564,18.6666982833","7, Młodych Patriotów, Trynek, Gliwice, Górnośląsko-Zagłębiowska Metropolia, województwo śląskie, 44-122, Polska",7,Młodych Patriotów,Gliwice,Polska,44-122
216,17317,18.6681685535,50.2820091824,"50.2820091824,18.6681685535","75, Franciszka Żwirki i Stanisława Wigury, Trynek, Gliwice, Górnośląsko-Zagłębiowska Metropolia, województwo śląskie, 44-122, Polska",75,Franciszka Żwirki i Stanisława Wigury,Gliwice,Polska,44-122
217,17318,18.6673842334,50.2820214202,"50.2820214202,18.6673842334","3, Młodych Patriotów, Trynek, Gliwice, Górnośląsko-Zagłębiowska Metropolia, województwo śląskie, 44-122, Polska",3,Młodych Patriotów,Gliwice,Polska,44-122
218,17319,18.6677549499,50.2819719096,"50.2819719096,18.6677549499","3, Młodych Patriotów, Trynek, Gliwice, Górnośląsko-Zagłębiowska Metropolia, województwo śląskie, 44-122, Polska",3,Młodych Patriotów,Gliwice,Polska,44-122
219,17320,18.6679354266,50.2818841113,"50.2818841113,18.6679354266","3, Młodych Patriotów, Trynek, Gliwice, Górnośląsko-Zagłębiowska Metropolia, województwo śląskie, 44-122, Polska",3,Młodych Patriotów,Gliwice,Polska,44-122
220,17321,18.6673264259,50.2819312145,"50.2819312145,18.6673264259","3, Młodych Patriotów, Trynek, Gliwice, Górnośląsko-Zagłębiowska Metropolia, województwo śląskie, 44-122, Polska",3,Młodych Patriotów,Gliwice,Polska,44-122
221,17322,18.666735405,50.2821505655,"50.2821505655,18.666735405","Młodych Patriotów, Trynek, Gliwice, Górnośląsko-Zagłębiowska Metropolia, województwo śląskie, 44-122, Polska",,Młodych Patriotów,Gliwice,Polska,44-122
222,17323,18.6671291675,50.2822941374,"50.2822941374,18.6671291675","Leyla Kebab, 65, Franciszka Żwirki i Stanisława Wigury, Trynek, Gliwice, Górnośląsko-Zagłębiowska Metropolia, województwo śląskie, 44-122, Polska",65,Franciszka Żwirki i Stanisława Wigury,Gliwice,Polska,44-122
223,17324,18.6676792475,50.2822073645,"50.2822073645,18.6676792475","Trynek Cichociemnych, Franciszka Żwirki i Stanisława Wigury, Trynek, Gliwice, Górnośląsko-Zagłębiowska Metropolia, województwo śląskie, 44-122, Polska",,Franciszka Żwirki i Stanisława Wigury,Gliwice,Polska,44-122
224,17326,18.6655001786,50.2765220156,"50.2765220156,18.6655001786","Trynek Bardowskiego, Piotra Bardowskiego, Trynek, Gliwice, Górnośląsko-Zagłębiowska Metropolia, województwo śląskie, 44-122, Polska",,Piotra Bardowskiego,Gliwice,Polska,44-122
225,17328,18.6663967042,50.2766546187,"50.2766546187,18.6663967042","Piotra Bardowskiego, Trynek, Gliwice, Górnośląsko-Zagłębiowska Metropolia, województwo śląskie, 44-122, Polska",,Piotra Bardowskiego,Gliwice,Polska,44-122
226,17331,18.6659780363,50.2766632219,"50.2766632219,18.6659780363","Trynek Bardowskiego, Piotra Bardowskiego, Trynek, Gliwice, Górnośląsko-Zagłębiowska Metropolia, województwo śląskie, 44-122, Polska",,Piotra Bardowskiego,Gliwice,Polska,44-122
227,17332,18.6655340102,50.2766743962,"50.2766743962,18.6655340102","Trynek Bardowskiego, Piotra Bardowskiego, Trynek, Gliwice, Górnośląsko-Zagłębiowska Metropolia, województwo śląskie, 44-122, Polska",,Piotra Bardowskiego,Gliwice,Polska,44-122
228,17333,18.6654928053,50.2764258559,"50.2764258559,18.6654928053","9, Szybowcowa, Trynek, Gliwice, Górnośląsko-Zagłębiowska Metropolia, województwo śląskie, 44-122, Polska",9,Szybowcowa,Gliwice,Polska,44-122
229,17334,18.6655108868,50.2766762369,"50.2766762369,18.6655108868","Trynek Bardowskiego, Piotra Bardowskiego, Trynek, Gliwice, Górnośląsko-Zagłębiowska Metropolia, województwo śląskie, 44-122, Polska",,Piotra Bardowskiego,Gliwice,Polska,44-122
230,17337,18.666457998,50.2766534581,"50.2766534581,18.666457998","Piotra Bardowskiego, Trynek, Gliwice, Górnośląsko-Zagłębiowska Metropolia, województwo śląskie, 44-122, Polska",,Piotra Bardowskiego,Gliwice,Polska,44-122
231,17338,18.6664906372,50.2772527794,"50.2772527794,18.6664906372","Spadochroniarzy, Trynek, Gliwice, Górnośląsko-Zagłębiowska Metropolia, województwo śląskie, 44-122, Polska",,Spadochroniarzy,Gliwice,Polska,44-122
232,17339,18.6665108599,50.2776259626,"50.2776259626,18.6665108599","Paralotniarzy, Trynek, Gliwice, Górnośląsko-Zagłębiowska Metropolia, województwo śląskie, 44-122, Polska",,Paralotniarzy,Gliwice,Polska,44-122
233,17342,18.6664462996,50.2765390719,"50.2765390719,18.6664462996","6, Piotra Bardowskiego, Trynek, Gliwice, Górnośląsko-Zagłębiowska Metropolia, województwo śląskie, 44-122, Polska",6,Piotra Bardowskiego,Gliwice,Polska,44-122
234,17343,18.6665214356,50.2778809717,"50.2778809717,18.6665214356","6, Jana Pietrusińskiego, Trynek, Gliwice, Górnośląsko-Zagłębiowska Metropolia, województwo śląskie, 44-122, Polska",6,Jana Pietrusińskiego,Gliwice,Polska,44-122
235,17344,18.666449285,50.2766021704,"50.2766021704,18.666449285","Piotra Bardowskiego, Trynek, Gliwice, Górnośląsko-Zagłębiowska Metropolia, województwo śląskie, 44-122, Polska",,Piotra Bardowskiego,Gliwice,Polska,44-122
236,17348,18.6664293208,50.2762976756,"50.2762976756,18.6664293208","13, Stanisława Kunickiego, Trynek, Gliwice, Górnośląsko-Zagłębiowska Metropolia, województwo śląskie, 44-122, Polska",13,Stanisława Kunickiego,Gliwice,Polska,44-122
237,17349,18.6665079892,50.2766667476,"50.2766667476,18.6665079892","11, Stanisława Kunickiego, Trynek, Gliwice, Górnośląsko-Zagłębiowska Metropolia, województwo śląskie, 44-122, Polska",11,Stanisława Kunickiego,Gliwice,Polska,44-122
238,17350,18.666557501,50.2783939612,"50.2783939612,18.666557501","Przedszkole ""Chatka Puchatka"", Michała Ossowskiego, Trynek, Gliwice, Górnośląsko-Zagłębiowska Metropolia, województwo śląskie, 44-122, Polska",,Michała Ossowskiego,Gliwice,Polska,44-122
239,17352,18.6664400102,50.2764804878,"50.2764804878,18.6664400102","6, Piotra Bardowskiego, Trynek, Gliwice, Górnośląsko-Zagłębiowska Metropolia, województwo śląskie, 44-122, Polska",6,Piotra Bardowskiego,Gliwice,Polska,44-122
240,17355,18.6664957185,50.2771544805,"50.2771544805,18.6664957185","Spadochroniarzy, Trynek, Gliwice, Górnośląsko-Zagłębiowska Metropolia, województwo śląskie, 44-122, Polska",,Spadochroniarzy,Gliwice,Polska,44-122
241,17356,18.6665172574,50.2775214525,"50.2775214525,18.6665172574","Paralotniarzy, Trynek, Gliwice, Górnośląsko-Zagłębiowska Metropolia, województwo śląskie, 44-122, Polska",,Paralotniarzy,Gliwice,Polska,44-122
242,17357,18.6657481047,50.278465042,"50.278465042,18.6657481047","Przedszkole ""Chatka Puchatka"", Michała Ossowskiego, Trynek, Gliwice, Górnośląsko-Zagłębiowska Metropolia, województwo śląskie, 44-122, Polska",,Michała Ossowskiego,Gliwice,Polska,44-122
243,17359,18.6665112297,50.2777629807,"50.2777629807,18.6665112297","7, Stanisława Kunickiego, Trynek, Gliwice, Górnośląsko-Zagłębiowska Metropolia, województwo śląskie, 44-122, Polska",7,Stanisława Kunickiego,Gliwice,Polska,44-122
244,17360,18.6664877601,50.278443451,"50.278443451,18.6664877601","Przedszkole ""Chatka Puchatka"", Michała Ossowskiego, Trynek, Gliwice, Górnośląsko-Zagłębiowska Metropolia, województwo śląskie, 44-122, Polska",,Michała Ossowskiego,Gliwice,Polska,44-122
245,17365,18.6665641846,50.283936135,"50.283936135,18.6665641846","Zakład Lecznictwa Podstawowego i Specjalistycznego ”Medicor” Spółka z o.o., 14, Cichociemnych, Trynek, Gliwice, Górnośląsko-Zagłębiowska Metropolia, województwo śląskie, 44-100, Polska",14,Cichociemnych,Gliwice,Polska,44-100
246,17366,18.6672208774,50.2838358061,"50.2838358061,18.6672208774","Zakład Lecznictwa Podstawowego i Specjalistycznego ”Medicor” Spółka z o.o., 14, Cichociemnych, Trynek, Gliwice, Górnośląsko-Zagłębiowska Metropolia, województwo śląskie, 44-100, Polska",14,Cichociemnych,Gliwice,Polska,44-100
247,17367,18.6674871587,50.2837725105,"50.2837725105,18.6674871587","13, Cichociemnych, Trynek, Gliwice, Górnośląsko-Zagłębiowska Metropolia, województwo śląskie, 44-100, Polska",13,Cichociemnych,Gliwice,Polska,44-100
248,17368,18.6664960999,50.2838033714,"50.2838033714,18.6664960999","Zakład Lecznictwa Podstawowego i Specjalistycznego ”Medicor” Spółka z o.o., 14, Cichociemnych, Trynek, Gliwice, Górnośląsko-Zagłębiowska Metropolia, województwo śląskie, 44-100, Polska",14,Cichociemnych,Gliwice,Polska,44-100
249,17369,18.6669234702,50.2838808486,"50.2838808486,18.6669234702","Zakład Lecznictwa Podstawowego i Specjalistycznego ”Medicor” Spółka z o.o., 14, Cichociemnych, Trynek, Gliwice, Górnośląsko-Zagłębiowska Metropolia, województwo śląskie, 44-100, Polska",14,Cichociemnych,Gliwice,Polska,44-100
250,17370,18.6664149662,50.2836404734,"50.2836404734,18.6664149662","Zakład Lecznictwa Podstawowego i Specjalistycznego ”Medicor” Spółka z o.o., 14, Cichociemnych, Trynek, Gliwice, Górnośląsko-Zagłębiowska Metropolia, województwo śląskie, 44-100, Polska",14,Cichociemnych,Gliwice,Polska,44-100
251,17375,18.6664834431,50.2804453727,"50.2804453727,18.6664834431","4, Szarych Szeregów, Trynek, Gliwice, Górnośląsko-Zagłębiowska Metropolia, województwo śląskie, 44-122, Polska",4,Szarych Szeregów,Gliwice,Polska,44-122
252,17376,18.6677403254,50.2793620477,"50.2793620477,18.6677403254","2, Modelarzy, Trynek, Gliwice, Górnośląsko-Zagłębiowska Metropolia, województwo śląskie, 44-122, Polska",2,Modelarzy,Gliwice,Polska,44-122
253,17377,18.6658810096,50.276667464,"50.276667464,18.6658810096","Trynek Bardowskiego, Piotra Bardowskiego, Trynek, Gliwice, Górnośląsko-Zagłębiowska Metropolia, województwo śląskie, 44-122, Polska",,Piotra Bardowskiego,Gliwice,Polska,44-122
254,17378,18.6656529279,50.2766704786,"50.2766704786,18.6656529279","Trynek Bardowskiego, Piotra Bardowskiego, Trynek, Gliwice, Górnośląsko-Zagłębiowska Metropolia, województwo śląskie, 44-122, Polska",,Piotra Bardowskiego,Gliwice,Polska,44-122
255,17380,18.6661806013,50.2784710155,"50.2784710155,18.6661806013","Przedszkole ""Chatka Puchatka"", Michała Ossowskiego, Trynek, Gliwice, Górnośląsko-Zagłębiowska Metropolia, województwo śląskie, 44-122, Polska",,Michała Ossowskiego,Gliwice,Polska,44-122
256,17381,18.6657756622,50.2784792695,"50.2784792695,18.6657756622","Przedszkole ""Chatka Puchatka"", Michała Ossowskiego, Trynek, Gliwice, Górnośląsko-Zagłębiowska Metropolia, województwo śląskie, 44-122, Polska",,Michała Ossowskiego,Gliwice,Polska,44-122
